start=new Date('2022-01-15T00:00:00.000Z').valueOf();
sats=[{"TIME_SYSTEM":"UTC","TLE_LINE1":"1 44927U 20001P   22014.94239524  .00000158  00000-0  29514-4 0  9995","GP_ID":"193877591","PERIOD":"95.592","OBJECT_NAME":"STARLINK-1114","APOAPSIS":"548.629","OBJECT_TYPE":"PAYLOAD","MEAN_ANOMALY":"293.5893","FILE":"3273247","REV_AT_EPOCH":"11154","NORAD_CAT_ID":"44927","RA_OF_ASC_NODE":"306.5788","EPHEMERIS_TYPE":"0","ELEMENT_SET_NO":"999","ECCENTRICITY":"0.00020210","CLASSIFICATION_TYPE":"U","EPOCH":"2022-01-14T22:37:02.948736","MEAN_MOTION_DDOT":"0.0000000000000","SEMIMAJOR_AXIS":"6925.364","OBJECT_ID":"2020-001P","CENTER_NAME":"EARTH","MEAN_MOTION_DOT":"0.00000158","ARG_OF_PERICENTER":"66.5308","DECAY_DATE":null,"MEAN_ELEMENT_THEORY":"SGP4","LAUNCH_DATE":"2020-01-07","TLE_LINE2":"2 44927  53.0547 306.5788 0002021  66.5308 293.5893 15.06394963111549","PERIAPSIS":"545.829","SITE":"AFETR","INCLINATION":"53.0547","RCS_SIZE":"LARGE","MEAN_MOTION":"15.06394963","REF_FRAME":"TEME","COUNTRY_CODE":"US","BSTAR":"0.00002951400000"},{"CLASSIFICATION_TYPE":"U","EPOCH":"2022-01-14T12:58:30.095040","SEMIMAJOR_AXIS":"6925.368","MEAN_MOTION_DDOT":"0.0000000000000","DECAY_DATE":null,"MEAN_ELEMENT_THEORY":"SGP4","LAUNCH_DATE":"2020-01-07","OBJECT_ID":"2020-001Q","CENTER_NAME":"EARTH","MEAN_MOTION_DOT":"0.00000447","ARG_OF_PERICENTER":"68.2479","SITE":"AFETR","INCLINATION":"53.0557","RCS_SIZE":"LARGE","TLE_LINE2":"2 44928  53.0557 308.3981 0001969  68.2479 291.8720 15.06393620111486","PERIAPSIS":"545.870","BSTAR":"0.00004894100000","COUNTRY_CODE":"US","MEAN_MOTION":"15.06393620","REF_FRAME":"TEME","PERIOD":"95.593","TIME_SYSTEM":"UTC","TLE_LINE1":"1 44928U 20001Q   22014.54062610  .00000447  00000-0  48941-4 0  9998","GP_ID":"193844726","APOAPSIS":"548.597","OBJECT_TYPE":"PAYLOAD","OBJECT_NAME":"STARLINK-1119","EPHEMERIS_TYPE":"0","FILE":"3272874","MEAN_ANOMALY":"291.8720","REV_AT_EPOCH":"11148","RA_OF_ASC_NODE":"308.3981","NORAD_CAT_ID":"44928","ECCENTRICITY":"0.00019690","ELEMENT_SET_NO":"999"},{"TIME_SYSTEM":"UTC","GP_ID":"193876590","TLE_LINE1":"1 44929U 20001R   22014.65857205  .00000922  00000-0  80770-4 0  9997","PERIOD":"95.592","OBJECT_NAME":"STARLINK-1121","APOAPSIS":"548.495","OBJECT_TYPE":"PAYLOAD","REV_AT_EPOCH":"11149","FILE":"3273247","MEAN_ANOMALY":"292.1043","NORAD_CAT_ID":"44929","RA_OF_ASC_NODE":"307.8497","EPHEMERIS_TYPE":"0","ELEMENT_SET_NO":"999","ECCENTRICITY":"0.00018510","CLASSIFICATION_TYPE":"U","EPOCH":"2022-01-14T15:48:20.625120","SEMIMAJOR_AXIS":"6925.348","MEAN_MOTION_DDOT":"0.0000000000000","OBJECT_ID":"2020-001R","CENTER_NAME":"EARTH","MEAN_MOTION_DOT":"0.00000922","ARG_OF_PERICENTER":"68.0143","DECAY_DATE":null,"MEAN_ELEMENT_THEORY":"SGP4","LAUNCH_DATE":"2020-01-07","TLE_LINE2":"2 44929  53.0550 307.8497 0001851  68.0143 292.1043 15.06400229111499","PERIAPSIS":"545.931","SITE":"AFETR","INCLINATION":"53.0550","RCS_SIZE":"LARGE","MEAN_MOTION":"15.06400229","REF_FRAME":"TEME","COUNTRY_CODE":"US","BSTAR":"0.00008077000000"},{"ECCENTRICITY":"0.00018370","ELEMENT_SET_NO":"999","EPHEMERIS_TYPE":"0","RA_OF_ASC_NODE":"310.3913","NORAD_CAT_ID":"44930","REV_AT_EPOCH":"11141","FILE":"3272874","MEAN_ANOMALY":"292.9939","OBJECT_TYPE":"PAYLOAD","APOAPSIS":"548.470","OBJECT_NAME":"STARLINK-1123","PERIOD":"95.592","TLE_LINE1":"1 44930U 20001S   22014.09462561  .00004293  00000-0  30692-3 0  9996","GP_ID":"193845726","TIME_SYSTEM":"UTC","COUNTRY_CODE":"US","BSTAR":"0.00030692000000","REF_FRAME":"TEME","MEAN_MOTION":"15.06405048","RCS_SIZE":"LARGE","INCLINATION":"53.0536","SITE":"AFETR","PERIAPSIS":"545.926","TLE_LINE2":"2 44930  53.0536 310.3913 0001837  67.1244 292.9939 15.06405048111411","LAUNCH_DATE":"2020-01-07","MEAN_ELEMENT_THEORY":"SGP4","DECAY_DATE":null,"ARG_OF_PERICENTER":"67.1244","MEAN_MOTION_DOT":"0.00004293","CENTER_NAME":"EARTH","OBJECT_ID":"2020-001S","MEAN_MOTION_DDOT":"0.0000000000000","SEMIMAJOR_AXIS":"6925.333","EPOCH":"2022-01-14T02:16:15.652704","CLASSIFICATION_TYPE":"U"},{"PERIOD":"95.378","TIME_SYSTEM":"UTC","GP_ID":"193845971","TLE_LINE1":"1 44931U 20001T   22014.50318926  .00007905  00000-0  50115-3 0  9993","APOAPSIS":"538.759","OBJECT_TYPE":"PAYLOAD","OBJECT_NAME":"STARLINK-1128","EPHEMERIS_TYPE":"0","MEAN_ANOMALY":"279.8837","FILE":"3272874","REV_AT_EPOCH":"11223","NORAD_CAT_ID":"44931","RA_OF_ASC_NODE":"307.4975","ECCENTRICITY":"0.00027590","ELEMENT_SET_NO":"999","EPOCH":"2022-01-14T12:04:35.552064","CLASSIFICATION_TYPE":"U","SEMIMAJOR_AXIS":"6914.986","MEAN_MOTION_DDOT":"0.0000000000000","MEAN_ELEMENT_THEORY":"SGP4","DECAY_DATE":null,"LAUNCH_DATE":"2020-01-07","OBJECT_ID":"2020-001T","MEAN_MOTION_DOT":"0.00007905","ARG_OF_PERICENTER":"80.2465","CENTER_NAME":"EARTH","SITE":"AFETR","INCLINATION":"53.0540","RCS_SIZE":"LARGE","TLE_LINE2":"2 44931  53.0540 307.4975 0002759  80.2465 279.8837 15.09787452112234","PERIAPSIS":"534.943","COUNTRY_CODE":"US","BSTAR":"0.00050115000000","MEAN_MOTION":"15.09787452","REF_FRAME":"TEME"},{"EPHEMERIS_TYPE":"0","NORAD_CAT_ID":"44932","RA_OF_ASC_NODE":"306.5752","MEAN_ANOMALY":"292.9579","FILE":"3273247","REV_AT_EPOCH":"11277","ECCENTRICITY":"0.00018020","ELEMENT_SET_NO":"999","PERIOD":"95.592","GP_ID":"193877343","TLE_LINE1":"1 44932U 20001U   22014.94608023  .00000667  00000-0  63656-4 0  9995","TIME_SYSTEM":"UTC","OBJECT_TYPE":"PAYLOAD","APOAPSIS":"548.470","OBJECT_NAME":"STARLINK-1130","INCLINATION":"53.0553","RCS_SIZE":"LARGE","SITE":"AFETR","PERIAPSIS":"545.974","TLE_LINE2":"2 44932  53.0553 306.5752 0001802  67.1600 292.9579 15.06397164112777","BSTAR":"0.00006365600000","COUNTRY_CODE":"US","REF_FRAME":"TEME","MEAN_MOTION":"15.06397164","SEMIMAJOR_AXIS":"6925.357","MEAN_MOTION_DDOT":"0.0000000000000","EPOCH":"2022-01-14T22:42:21.331872","CLASSIFICATION_TYPE":"U","LAUNCH_DATE":"2020-01-07","MEAN_ELEMENT_THEORY":"SGP4","DECAY_DATE":null,"MEAN_MOTION_DOT":"0.00000667","ARG_OF_PERICENTER":"67.1600","CENTER_NAME":"EARTH","OBJECT_ID":"2020-001U"},{"OBJECT_ID":"2020-001V","CENTER_NAME":"EARTH","ARG_OF_PERICENTER":"74.5163","MEAN_MOTION_DOT":"0.00000674","DECAY_DATE":null,"MEAN_ELEMENT_THEORY":"SGP4","LAUNCH_DATE":"2020-01-07","CLASSIFICATION_TYPE":"U","EPOCH":"2022-01-14T12:10:43.075200","MEAN_MOTION_DDOT":"0.0000000000000","SEMIMAJOR_AXIS":"6925.339","MEAN_MOTION":"15.06403256","REF_FRAME":"TEME","BSTAR":"0.00006416500000","COUNTRY_CODE":"US","TLE_LINE2":"2 44933  53.0555 308.5403 0001793  74.5163 285.6024 15.06403256112763","PERIAPSIS":"545.962","SITE":"AFETR","RCS_SIZE":"LARGE","INCLINATION":"53.0555","OBJECT_NAME":"STARLINK-1144","OBJECT_TYPE":"PAYLOAD","APOAPSIS":"548.445","TIME_SYSTEM":"UTC","GP_ID":"193844472","TLE_LINE1":"1 44933U 20001V   22014.50744300  .00000674  00000-0  64165-4 0  9991","PERIOD":"95.592","ELEMENT_SET_NO":"999","ECCENTRICITY":"0.00017930","FILE":"3272874","REV_AT_EPOCH":"11276","MEAN_ANOMALY":"285.6024","NORAD_CAT_ID":"44933","RA_OF_ASC_NODE":"308.5403","EPHEMERIS_TYPE":"0"},{"OBJECT_ID":"2020-001W","ARG_OF_PERICENTER":"79.4745","MEAN_MOTION_DOT":"0.00000250","CENTER_NAME":"EARTH","MEAN_ELEMENT_THEORY":"SGP4","DECAY_DATE":null,"LAUNCH_DATE":"2020-01-07","EPOCH":"2022-01-14T22:02:32.395200","CLASSIFICATION_TYPE":"U","MEAN_MOTION_DDOT":"0.0000000000000","SEMIMAJOR_AXIS":"6925.338","MEAN_MOTION":"15.06403441","REF_FRAME":"TEME","BSTAR":"0.00003571200000","COUNTRY_CODE":"US","TLE_LINE2":"2 44934  53.0548 286.6940 0001841  79.4745 280.6451 15.06403441111812","PERIAPSIS":"545.928","SITE":"AFETR","RCS_SIZE":"LARGE","INCLINATION":"53.0548","OBJECT_NAME":"STARLINK-1071","APOAPSIS":"548.478","OBJECT_TYPE":"PAYLOAD","TIME_SYSTEM":"UTC","GP_ID":"193876341","TLE_LINE1":"1 44934U 20001W   22014.91843050  .00000250  00000-0  35712-4 0  9995","PERIOD":"95.592","ELEMENT_SET_NO":"999","ECCENTRICITY":"0.00018410","FILE":"3273247","MEAN_ANOMALY":"280.6451","REV_AT_EPOCH":"11181","RA_OF_ASC_NODE":"286.6940","NORAD_CAT_ID":"44934","EPHEMERIS_TYPE":"0"},{"ECCENTRICITY":"0.00020090","ELEMENT_SET_NO":"999","EPHEMERIS_TYPE":"0","NORAD_CAT_ID":"44937","RA_OF_ASC_NODE":"286.7969","FILE":"3273247","MEAN_ANOMALY":"293.7858","REV_AT_EPOCH":"11181","APOAPSIS":"548.613","OBJECT_TYPE":"PAYLOAD","OBJECT_NAME":"STARLINK-1079","PERIOD":"95.592","GP_ID":"193877592","TLE_LINE1":"1 44937U 20001Z   22014.89631842  .00001962  00000-0  15061-3 0  9994","TIME_SYSTEM":"UTC","BSTAR":"0.00015061000000","COUNTRY_CODE":"US","REF_FRAME":"TEME","MEAN_MOTION":"15.06397327","RCS_SIZE":"LARGE","INCLINATION":"53.0546","SITE":"AFETR","PERIAPSIS":"545.830","TLE_LINE2":"2 44937  53.0546 286.7969 0002009  66.3342 293.7858 15.06397327111811","LAUNCH_DATE":"2020-01-07","DECAY_DATE":null,"MEAN_ELEMENT_THEORY":"SGP4","CENTER_NAME":"EARTH","ARG_OF_PERICENTER":"66.3342","MEAN_MOTION_DOT":"0.00001962","OBJECT_ID":"2020-001Z","MEAN_MOTION_DDOT":"0.0000000000000","SEMIMAJOR_AXIS":"6925.357","CLASSIFICATION_TYPE":"U","EPOCH":"2022-01-14T21:30:41.911488"},{"MEAN_MOTION_DDOT":"0.0000000000000","SEMIMAJOR_AXIS":"6925.344","EPOCH":"2022-01-14T22:18:27.965376","CLASSIFICATION_TYPE":"U","LAUNCH_DATE":"2020-01-07","MEAN_ELEMENT_THEORY":"SGP4","DECAY_DATE":null,"MEAN_MOTION_DOT":"0.00000763","ARG_OF_PERICENTER":"66.7444","CENTER_NAME":"EARTH","OBJECT_ID":"2020-001AA","RCS_SIZE":"LARGE","INCLINATION":"53.0550","SITE":"AFETR","PERIAPSIS":"545.839","TLE_LINE2":"2 44938  53.0550 286.6438 0001979  66.7444 293.3753 15.06401357111818","BSTAR":"0.00007014100000","COUNTRY_CODE":"US","REF_FRAME":"TEME","MEAN_MOTION":"15.06401357","PERIOD":"95.592","GP_ID":"193877843","TLE_LINE1":"1 44938U 20001AA  22014.92949034  .00000763  00000-0  70141-4 0  9993","TIME_SYSTEM":"UTC","OBJECT_TYPE":"PAYLOAD","APOAPSIS":"548.580","OBJECT_NAME":"STARLINK-1082","EPHEMERIS_TYPE":"0","NORAD_CAT_ID":"44938","RA_OF_ASC_NODE":"286.6438","FILE":"3273247","MEAN_ANOMALY":"293.3753","REV_AT_EPOCH":"11181","ECCENTRICITY":"0.00019790","ELEMENT_SET_NO":"999"}];
